NORAD_CAT_ID,OBJECT_NAME,OBJECT_TYPE,EPOCH,MEAN_MOTION,ECCENTRICITY,INCLINATION,RA_OF_ASC_NODE,ARG_OF_PERICENTER,MEAN_ANOMALY,BSTAR,MEAN_MOTION_DOT,MEAN_MOTION_DDOT,TLE_LINE0,TLE_LINE1,TLE_LINE2,SEMIMAJOR_AXIS,PERIOD,APOGEE,PERIGEE,DECAYED
55946.0,STARLINK-5857,PAYLOAD,2024-03-20 00:38:31,14.98336675,0.000286,69.9987,298.9008,267.8031,92.2801,8.2031e-05,8.86e-06,0.0,0 STARLINK-5857,1 55946U 23037AJ  24080.02674826  .00000886  00000-0  82031-4 0  9993,2 55946  69.9987 298.9008 0002860 267.8031  92.2801 14.98336675 56520,6950.172,96.107,574.025,570.049,0.0
55946.0,STARLINK-5857,PAYLOAD,2024-03-20 16:39:52,14.98329544,0.0002603,69.999,297.2175,264.7142,95.372,-6.6341e-05,-8.84e-06,0.0,0 STARLINK-5857,1 55946U 23037AJ  24080.69435660 -.00000884  00000-0 -66341-4 0  9993,2 55946  69.9990 297.2175 0002603 264.7142  95.3720 14.98329544 56627,6950.194,96.107,573.868,570.25,0.0
55946.0,STARLINK-5857,PAYLOAD,2024-03-20 21:28:16,14.98324712,0.0002731,69.9989,296.7126,266.6376,93.447,-0.0001052,-1.348e-05,0.0,0 STARLINK-5857,1 55946U 23037AJ  24080.89464075 -.00001348  00000-0 -10520-3 0  9990,2 55946  69.9989 296.7126 0002731 266.6376  93.4470 14.98324712 56316,6950.209,96.107,573.972,570.176,0.0
55946.0,STARLINK-5857,PAYLOAD,2024-03-21 15:05:44,14.98335032,0.0003041,69.998,294.86,272.0837,87.9974,-3.0042e-05,-4.52e-06,0.0,0 STARLINK-5857,1 55946U 23037AJ  24081.62899230 -.00000452  00000-0 -30042-4 0  9994,2 55946  69.9980 294.8600 0003041 272.0837  87.9974 14.98335032 56427,6950.177,96.107,574.156,569.929,0.0
55946.0,STARLINK-5857,PAYLOAD,2024-03-21 19:54:09,14.98332399,0.0003157,69.998,294.3547,274.0928,85.9871,-3.5729e-05,-5.19e-06,0.0,0 STARLINK-5857,1 55946U 23037AJ  24081.82927371 -.00000519  00000-0 -35729-4 0  9995,2 55946  69.9980 294.3547 0003157 274.0928  85.9871 14.98332399 56790,6950.185,96.107,574.245,569.856,0.0
55946.0,STARLINK-5857,PAYLOAD,2024-03-21 21:30:16,14.98337449,0.0002964,69.998,294.1864,271.2473,88.8346,1.4854e-05,8.4e-07,0.0,0 STARLINK-5857,1 55946U 23037AJ  24081.89602865  .00000084  00000-0  14854-4 0  9991,2 55946  69.9980 294.1864 0002964 271.2473  88.8346 14.98337449 56463,6950.17,96.107,574.095,569.975,0.0
55946.0,STARLINK-5857,PAYLOAD,2024-03-21 23:06:24,14.98338544,0.0003,69.9981,294.0183,271.8614,88.2202,3.1697e-05,2.85e-06,0.0,0 STARLINK-5857,1 55946U 23037AJ  24081.96278721  .00000285  00000-0  31697-4 0  9996,2 55946  69.9981 294.0183 0003000 271.8614  88.2202 14.98338544 56813,6950.166,96.106,574.117,569.946,0.0
55946.0,STARLINK-5857,PAYLOAD,2024-03-22 19:56:13,14.98286407,0.0003268,69.9978,291.8296,274.7575,85.321,-0.00035792,-4.356e-05,0.0,0 STARLINK-5857,1 55946U 23037AJ  24082.83071297 -.00004356  00000-0 -35792-3 0  9996,2 55946  69.9978 291.8296 0003268 274.7575  85.3210 14.98286407 56944,6950.328,96.11,574.464,569.921,0.0
55946.0,STARLINK-5857,PAYLOAD,2024-03-22 21:32:21,14.98286234,0.0003301,69.9977,291.6611,275.4408,84.6375,-0.00035662,-4.341e-05,0.0,0 STARLINK-5857,1 55946U 23037AJ  24082.89747451 -.00004341  00000-0 -35662-3 0  9994,2 55946  69.9977 291.6611 0003301 275.4408  84.6375 14.98286234 56619,6950.328,96.11,574.488,569.899,0.0
55946.0,STARLINK-5857,PAYLOAD,2024-03-23 19:58:12,14.98331474,0.0002724,69.9988,289.3045,269.8029,90.2818,7.7351e-05,8.3e-06,0.0,0 STARLINK-5857,1 55946U 23037AJ  24083.83208731  .00000830  00000-0  77351-4 0  9991,2 55946  69.9988 289.3045 0002724 269.8029  90.2818 14.98331474 57095,6950.188,96.107,573.947,570.16,0.0
55946.0,STARLINK-5857,PAYLOAD,2024-03-23 21:34:20,14.98330978,0.0002674,69.999,289.1368,263.0122,97.0733,7.2315e-05,7.7e-06,0.0,0 STARLINK-5857,1 55946U 23037AJ  24083.89884763  .00000770  00000-0  72315-4 0  9990,2 55946  69.9990 289.1368 0002674 263.0122  97.0733 14.98330978 56760,6950.19,96.107,573.913,570.196,0.0
55946.0,STARLINK-5857,PAYLOAD,2024-03-24 13:35:40,14.98321344,0.0003433,69.9977,287.453,276.2281,83.8487,0.00056613,6.667e-05,0.0,0 STARLINK-5857,1 55946U 23037AJ  24084.56643584  .00006667  00000-0  56613-3 0  9992,2 55946  69.9977 287.4530 0003433 276.2281  83.8487 14.98321344 56860,6950.22,96.108,574.471,569.699,0.0
55946.0,STARLINK-5857,PAYLOAD,2024-03-24 21:36:19,14.98331751,0.0003383,69.9976,286.6112,276.2174,83.86,0.0006129,7.228e-05,0.0,0 STARLINK-5857,1 55946U 23037AJ  24084.90022888  .00007228  00000-0  61290-3 0  9999,2 55946  69.9976 286.6112 0003383 276.2174  83.8600 14.98331751 57255,6950.187,96.107,574.404,569.701,0.0
55946.0,STARLINK-5857,PAYLOAD,2024-03-25 07:13:08,14.98327946,0.00033,69.9998,285.6019,282.9526,77.1264,0.00049797,5.853e-05,0.0,0 STARLINK-5857,1 55946U 23037AJ  24085.30079435  .00005853  00000-0  49797-3 0  9994,2 55946  69.9998 285.6019 0003300 282.9526  77.1264 14.98327946 57318,6950.199,96.107,574.358,569.771,0.0
55946.0,STARLINK-5857,PAYLOAD,2024-03-25 20:02:16,14.98305796,0.0003984,69.9975,284.2544,282.0084,78.0628,-0.00040099,-4.872e-05,0.0,0 STARLINK-5857,1 55946U 23037AJ  24085.83491385 -.00004872  00000-0 -40099-3 0  9992,2 55946  69.9975 284.2544 0003984 282.0084  78.0628 14.98305796 57390,6950.268,96.109,574.902,569.364,0.0
55946.0,STARLINK-5857,PAYLOAD,2024-03-25 21:38:24,14.98305443,0.0003896,69.9975,284.0862,281.0992,78.9729,-0.0004007,-4.868e-05,0.0,0 STARLINK-5857,1 55946U 23037AJ  24085.90167457 -.00004868  00000-0 -40070-3 0  9994,2 55946  69.9975 284.0862 0003896 281.0992  78.9729 14.98305443 57064,6950.269,96.109,574.842,569.426,0.0
55946.0,STARLINK-5857,PAYLOAD,2024-03-26 12:03:36,14.98326205,0.0004276,69.997,282.5679,271.4084,88.6585,-0.00042916,-5.21e-05,0.0,0 STARLINK-5857,1 55946U 23037AJ  24086.50250420 -.00005210  00000-0 -42916-3 0  9997,2 55946  69.9970 282.5679 0004276 271.4084  88.6585 14.98326205 57490,6950.205,96.107,575.042,569.098,0.0
55946.0,STARLINK-5857,PAYLOAD,2024-03-26 15:15:51,14.98334263,0.0003379,69.9983,282.2347,268.155,91.9222,-0.00020516,-2.54e-05,0.0,0 STARLINK-5857,1 55946U 23037AJ  24086.63601301 -.00002540  00000-0 -20516-3 0  9994,2 55946  69.9983 282.2347 0003379 268.1550  91.9222 14.98334263 57170,6950.18,96.107,574.393,569.696,0.0
55946.0,STARLINK-5857,PAYLOAD,2024-03-26 20:04:15,14.98336837,0.0003519,69.9994,281.7307,277.2044,82.8715,-0.00015039,-1.887e-05,0.0,0 STARLINK-5857,1 55946U 23037AJ  24086.83629027 -.00001887  00000-0 -15039-3 0  9998,2 55946  69.9994 281.7307 0003519 277.2044  82.8715 14.98336837 57543,6950.172,96.107,574.483,569.591,0.0
55946.0,STARLINK-5857,PAYLOAD,2024-03-26 21:40:23,14.98335144,0.000318,69.9998,281.5631,270.9358,89.1436,-0.00014299,-1.799e-05,0.0,0 STARLINK-5857,1 55946U 23037AJ  24086.90305082 -.00001799  00000-0 -14299-3 0  9997,2 55946  69.9998 281.5631 0003180 270.9358  89.1436 14.98335144 57211,6950.177,96.107,574.252,569.832,0.0
55946.0,STARLINK-5857,PAYLOAD,2024-03-27 13:41:43,14.98328129,0.0003689,69.9987,279.8781,274.4091,85.6646,0.00024196,2.795e-05,0.0,0 STARLINK-5857,1 55946U 23037AJ  24087.57064150  .00002795  00000-0  24196-3 0  9991,2 55946  69.9987 279.8781 0003689 274.4091  85.6646 14.98328129 57312,6950.199,96.107,574.628,569.5,0.0
55946.0,STARLINK-5857,PAYLOAD,2024-03-27 20:06:15,14.98318352,0.000393,69.9988,279.2048,278.4024,81.6689,0.00043324,5.079e-05,0.0,0 STARLINK-5857,1 55946U 23037AJ  24087.83768325  .00005079  00000-0  43324-3 0  9997,2 55946  69.9988 279.2048 0003930 278.4024  81.6689 14.98318352 57693,6950.229,96.108,574.825,569.362,0.0
55946.0,STARLINK-5857,PAYLOAD,2024-03-27 21:42:23,14.98319621,0.0003811,69.9989,279.0365,278.0251,82.0475,0.00041539,4.866e-05,0.0,0 STARLINK-5857,1 55946U 23037AJ  24087.90444332  .00004866  00000-0  41539-3 0  9993,2 55946  69.9989 279.0365 0003811 278.0251  82.0475 14.98319621 57362,6950.225,96.108,574.739,569.441,0.0
55946.0,STARLINK-5857,PAYLOAD,2024-03-28 12:07:35,14.98343151,0.0003937,69.9986,277.5207,276.0767,83.9943,9.1006e-05,9.93e-06,0.0,0 STARLINK-5857,1 55946U 23037AJ  24088.50527712  .00000993  00000-0  91006-4 0  9996,2 55946  69.9986 277.5207 0003937 276.0767  83.9943 14.98343151 57798,6950.152,96.106,574.753,569.281,0.0
55946.0,STARLINK-5857,PAYLOAD,2024-03-28 21:44:23,14.98346768,0.0003937,69.9987,276.5114,274.845,85.2259,0.00011841,1.321e-05,0.0,0 STARLINK-5857,1 55946U 23037AJ  24088.90582983  .00001321  00000-0  11841-3 0  9995,2 55946  69.9987 276.5114 0003937 274.8450  85.2259 14.98346768 57512,6950.141,96.106,574.742,569.27,0.0
55946.0,STARLINK-5857,PAYLOAD,2024-03-29 18:34:09,14.98308665,0.0003617,69.9992,274.3227,272.3505,87.724,0.00034919,4.074e-05,0.0,0 STARLINK-5857,1 55946U 23037AJ  24089.77372188  .00004074  00000-0  34919-3 0  9994,2 55946  69.9992 274.3227 0003617 272.3505  87.7240 14.98308665 57980,6950.259,96.108,574.638,569.61,0.0
55946.0,STARLINK-5857,PAYLOAD,2024-03-29 21:46:25,14.98335476,0.0003763,69.9991,273.986,273.0574,87.0154,-0.0001075,-1.376e-05,0.0,0 STARLINK-5857,1 55946U 23037AJ  24089.90723622 -.00001376  00000-0 -10750-3 0  9993,2 55946  69.9991 273.9860 0003763 273.0574  87.0154 14.98335476 57665,6950.176,96.107,574.656,569.426,0.0
55946.0,STARLINK-5857,PAYLOAD,2024-03-30 13:47:45,14.98338655,0.0003747,69.9988,272.3028,272.9369,87.1361,-0.00011251,-1.436e-05,0.0,0 STARLINK-5857,1 55946U 23037AJ  24090.57483100 -.00001436  00000-0 -11251-3 0  9996,2 55946  69.9988 272.3028 0003747 272.9369  87.1361 14.98338655 57766,6950.166,96.106,574.635,569.427,0.0
55946.0,STARLINK-5857,PAYLOAD,2024-03-30 21:48:25,14.98338075,0.0003744,69.9985,271.4608,272.4307,87.6423,-9.9591e-05,-1.282e-05,0.0,0 STARLINK-5857,1 55946U 23037AJ  24090.90862920 -.00001282  00000-0 -99591-4 0  9997,2 55946  69.9985 271.4608 0003744 272.4307  87.6423 14.98338075 57817,6950.168,96.106,574.635,569.431,0.0
55946.0,STARLINK-5857,PAYLOAD,2024-03-31 13:49:46,14.98330757,0.000379,69.999,269.7777,272.318,87.7545,2.5884e-05,2.16e-06,0.0,0 STARLINK-5857,1 55946U 23037AJ  24091.57622826  .00000216  00000-0  25884-4 0  9998,2 55946  69.9990 269.7777 0003790 272.3180  87.7545 14.98330757 57915,6950.191,96.107,574.69,569.421,0.0
